CELESTIS-02             
1 25160U 98007D   21342.49848219 -.00000075  00000+0  24033-4 0  9993
2 25160 107.9754 242.3211 0060760  76.1714   4.8652 14.21583870235946
CELESTIS-03             
1 26034U 99070C   21342.11888408  .00003916  00000+0  22314-3 0  9993
2 26034  98.3056 325.1595 0013094  61.8824 298.3727 15.13425334192106
LACMA ENOCH             
1 43777U 18099V   21342.22649703  .00580621  00000+0  77198-2 0  9995
2 43777  97.7253  66.7795 0009121 257.3430 102.7697 15.56172482165308
